ONEWEB-0668             
1 56711U 23068B   24257.51030548  .00000326  00000+0  82015-3 0  9994
2 56711  87.9164 356.5583 0002316  90.7759 269.3637 13.16594780 68049
ONEWEB-0676             
1 56712U 23068C   24257.33852809  .00000233  00000+0  57667-3 0  9999
2 56712  87.9171 356.6047 0001247 103.4589 256.6681 13.16593149 67943
ONEWEB-0677             
1 56713U 23068D   24258.13276632  .00000111  00000+0  24022-3 0  9997
2 56713  87.9222  41.9721 0001643  87.7864 272.3457 13.20768644 65880
ONEWEB-0678             
1 56714U 23068E   24258.07275950  .00000024  00000+0  30024-4 0  9996
2 56714  87.9096  26.7447 0001687 110.1168 250.0144 13.15546102 65694
ONEWEB-0679             
1 56715U 23068F   24258.52360788  .00000047  00000+0  90051-4 0  9992
2 56715  87.9167 356.3705 0001776  78.2571 281.8759 13.16595927 68129
ONEWEB-0680             
1 56716U 23068G   24258.02439549  .00000183  00000+0  41229-3 0  9993
2 56716  87.9355  11.6784 0002366  85.1898 274.9506 13.21827233 67094
ONEWEB-0681             
1 56717U 23068H   24258.03459851 -.00000398  00000+0 -99409-3 0  9996
2 56717  87.9354  11.6549 0000790  72.5648 287.5573 13.21825252 67087
ONEWEB-0682             
1 56718U 23068J   24257.41438350 -.00000332  00000+0 -91521-3 0  9994
2 56718  87.9090  26.9146 0002014  83.8391 276.2969 13.15547545 65775
